{
  "links" : {
    "next" : "https://api.nasa.gov/neo/rest/v1/feed?start_date=2003-08-09&end_date=2003-08-09&detailed=true&api_key=t0TVs3DtDT2H8Oy2Zy8m2eVrNsAVKAexjcZXUckd",
    "prev" : "https://api.nasa.gov/neo/rest/v1/feed?start_date=2003-08-07&end_date=2003-08-07&detailed=true&api_key=t0TVs3DtDT2H8Oy2Zy8m2eVrNsAVKAexjcZXUckd",
    "self" : "https://api.nasa.gov/neo/rest/v1/feed?start_date=2003-08-08&end_date=2003-08-08&detailed=true&api_key=t0TVs3DtDT2H8Oy2Zy8m2eVrNsAVKAexjcZXUckd"
  },
  "element_count" : 4,
  "near_earth_objects" : {
    "2003-08-08" : [ {
      "links" : {
        "self" : "https://api.nasa.gov/neo/rest/v1/neo/2068347?api_key=t0TVs3DtDT2H8Oy2Zy8m2eVrNsAVKAexjcZXUckd"
      },
      "neo_reference_id" : "2068347",
      "name" : "68347 (2001 KB67)",
      "nasa_jpl_url" : "http://ssd.jpl.nasa.gov/sbdb.cgi?sstr=2068347",
      "absolute_magnitude_h" : 19.9,
      "estimated_diameter" : {
        "kilometers" : {
          "estimated_diameter_min" : 0.2783267681,
          "estimated_diameter_max" : 0.6223575734
        },
        "meters" : {
          "estimated_diameter_min" : 278.3267680719,
          "estimated_diameter_max" : 622.3575733667
        },
        "miles" : {
          "estimated_diameter_min" : 0.1729441822,
          "estimated_diameter_max" : 0.3867149477
        },
        "feet" : {
          "estimated_diameter_min" : 913.1455937611,
          "estimated_diameter_max" : 2041.8556210042
        }
      },
      "is_potentially_hazardous_asteroid" : true,
      "close_approach_data" : [ {
        "close_approach_date" : "2003-08-08",
        "epoch_date_close_approach" : 1060326000000,
        "relative_velocity" : {
          "kilometers_per_second" : "9.3762675197",
          "kilometers_per_hour" : "33754.5630708949",
          "miles_per_hour" : "20973.7728148014"
        },
        "miss_distance" : {
          "astronomical" : "0.4485061461",
          "lunar" : "174.4688873291",
          "kilometers" : "67095564",
          "miles" : "41691252"
        },
        "orbiting_body" : "Earth"
      } ],
      "orbital_data" : {
        "orbit_id" : "37",
        "orbit_determination_date" : "2017-07-02 06:22:32",
        "orbit_uncertainty" : "0",
        "minimum_orbit_intersection" : ".0138031",
        "jupiter_tisserand_invariant" : "6.165",
        "epoch_osculation" : "2458000.5",
        "eccentricity" : ".3797685723176895",
        "semi_major_axis" : ".9628777763111724",
        "inclination" : "17.13790871412698",
        "ascending_node_longitude" : "245.9212571304545",
        "orbital_period" : "345.1081149495507",
        "perihelion_distance" : ".5972070578850468",
        "perihelion_argument" : "243.875608846173",
        "aphelion_distance" : "1.328548494737298",
        "perihelion_time" : "2457849.953431729456",
        "mean_anomaly" : "157.0428576717721",
        "mean_motion" : "1.043151361574405",
        "equinox" : "J2000"
      }
    }, {
      "links" : {
        "self" : "https://api.nasa.gov/neo/rest/v1/neo/2393569?api_key=t0TVs3DtDT2H8Oy2Zy8m2eVrNsAVKAexjcZXUckd"
      },
      "neo_reference_id" : "2393569",
      "name" : "393569 (2003 JC13)",
      "nasa_jpl_url" : "http://ssd.jpl.nasa.gov/sbdb.cgi?sstr=2393569",
      "absolute_magnitude_h" : 20.3,
      "estimated_diameter" : {
        "kilometers" : {
          "estimated_diameter_min" : 0.2315021222,
          "estimated_diameter_max" : 0.5176544822
        },
        "meters" : {
          "estimated_diameter_min" : 231.5021222103,
          "estimated_diameter_max" : 517.6544821978
        },
        "miles" : {
          "estimated_diameter_min" : 0.1438487052,
          "estimated_diameter_max" : 0.3216554833
        },
        "feet" : {
          "estimated_diameter_min" : 759.5214226325,
          "estimated_diameter_max" : 1698.3415313737
        }
      },
      "is_potentially_hazardous_asteroid" : false,
      "close_approach_data" : [ {
        "close_approach_date" : "2003-08-08",
        "epoch_date_close_approach" : 1060326000000,
        "relative_velocity" : {
          "kilometers_per_second" : "7.4025897774",
          "kilometers_per_hour" : "26649.3231984698",
          "miles_per_hour" : "16558.8530729603"
        },
        "miss_distance" : {
          "astronomical" : "0.2264555154",
          "lunar" : "88.0911941528",
          "kilometers" : "33877264",
          "miles" : "21050354"
        },
        "orbiting_body" : "Earth"
      } ],
      "orbital_data" : {
        "orbit_id" : "82",
        "orbit_determination_date" : "2017-04-06 09:21:58",
        "orbit_uncertainty" : "0",
        "minimum_orbit_intersection" : ".142881",
        "jupiter_tisserand_invariant" : "5.729",
        "epoch_osculation" : "2458000.5",
        "eccentricity" : ".3153282790219117",
        "semi_major_axis" : "1.066380121412242",
        "inclination" : "8.50764251007133",
        "ascending_node_longitude" : "205.8281941470034",
        "orbital_period" : "402.2226175528062",
        "perihelion_distance" : ".7301203129441423",
        "perihelion_argument" : "172.0069286941316",
        "aphelion_distance" : "1.402639929880341",
        "perihelion_time" : "2458130.619937158662",
        "mean_anomaly" : "243.5391762349902",
        "mean_motion" : ".895026744617953",
        "equinox" : "J2000"
      }
    }, {
      "links" : {
        "self" : "https://api.nasa.gov/neo/rest/v1/neo/3292011?api_key=t0TVs3DtDT2H8Oy2Zy8m2eVrNsAVKAexjcZXUckd"
      },
      "neo_reference_id" : "3292011",
      "name" : "(2005 SD71)",
      "nasa_jpl_url" : "http://ssd.jpl.nasa.gov/sbdb.cgi?sstr=3292011",
      "absolute_magnitude_h" : 23.2,
      "estimated_diameter" : {
        "kilometers" : {
          "estimated_diameter_min" : 0.0608912622,
          "estimated_diameter_max" : 0.1361570015
        },
        "meters" : {
          "estimated_diameter_min" : 60.8912622106,
          "estimated_diameter_max" : 136.1570015386
        },
        "miles" : {
          "estimated_diameter_min" : 0.0378360645,
          "estimated_diameter_max" : 0.0846040122
        },
        "feet" : {
          "estimated_diameter_min" : 199.7744887109,
          "estimated_diameter_max" : 446.7093369279
        }
      },
      "is_potentially_hazardous_asteroid" : false,
      "close_approach_data" : [ {
        "close_approach_date" : "2003-08-08",
        "epoch_date_close_approach" : 1060326000000,
        "relative_velocity" : {
          "kilometers_per_second" : "4.1202248462",
          "kilometers_per_hour" : "14832.809446408",
          "miles_per_hour" : "9216.5309585195"
        },
        "miss_distance" : {
          "astronomical" : "0.4714180786",
          "lunar" : "183.3816375732",
          "kilometers" : "70523144",
          "miles" : "43821048"
        },
        "orbiting_body" : "Earth"
      } ],
      "orbital_data" : {
        "orbit_id" : "17",
        "orbit_determination_date" : "2017-04-06 09:10:23",
        "orbit_uncertainty" : "6",
        "minimum_orbit_intersection" : ".0832134",
        "jupiter_tisserand_invariant" : "4.405",
        "epoch_osculation" : "2458000.5",
        "eccentricity" : ".3029656341312337",
        "semi_major_axis" : "1.543267172852361",
        "inclination" : "5.176344793531532",
        "ascending_node_longitude" : "40.80143071496806",
        "orbital_period" : "700.2612655892742",
        "perihelion_distance" : "1.075710255195229",
        "perihelion_argument" : "354.5339747148582",
        "aphelion_distance" : "2.010824090509492",
        "perihelion_time" : "2457873.140072152637",
        "mean_anomaly" : "65.47495381808366",
        "mean_motion" : ".5140938356729724",
        "equinox" : "J2000"
      }
    }, {
      "links" : {
        "self" : "https://api.nasa.gov/neo/rest/v1/neo/3748472?api_key=t0TVs3DtDT2H8Oy2Zy8m2eVrNsAVKAexjcZXUckd"
      },
      "neo_reference_id" : "3748472",
      "name" : "(2016 FU12)",
      "nasa_jpl_url" : "http://ssd.jpl.nasa.gov/sbdb.cgi?sstr=3748472",
      "absolute_magnitude_h" : 26.9,
      "estimated_diameter" : {
        "kilometers" : {
          "estimated_diameter_min" : 0.0110803882,
          "estimated_diameter_max" : 0.0247765013
        },
        "meters" : {
          "estimated_diameter_min" : 11.0803882126,
          "estimated_diameter_max" : 24.7765012606
        },
        "miles" : {
          "estimated_diameter_min" : 0.0068850319,
          "estimated_diameter_max" : 0.0153953994
        },
        "feet" : {
          "estimated_diameter_min" : 36.3529808636,
          "estimated_diameter_max" : 81.2877363957
        }
      },
      "is_potentially_hazardous_asteroid" : false,
      "close_approach_data" : [ {
        "close_approach_date" : "2003-08-08",
        "epoch_date_close_approach" : 1060326000000,
        "relative_velocity" : {
          "kilometers_per_second" : "2.6082560405",
          "kilometers_per_hour" : "9389.7217458991",
          "miles_per_hour" : "5834.407937056"
        },
        "miss_distance" : {
          "astronomical" : "0.0853113725",
          "lunar" : "33.186126709",
          "kilometers" : "12762400",
          "miles" : "7930188"
        },
        "orbiting_body" : "Earth"
      } ],
      "orbital_data" : {
        "orbit_id" : "4",
        "orbit_determination_date" : "2017-04-06 08:27:11",
        "orbit_uncertainty" : "7",
        "minimum_orbit_intersection" : ".0336951",
        "jupiter_tisserand_invariant" : "6.057",
        "epoch_osculation" : "2458000.5",
        "eccentricity" : ".1659032170444373",
        "semi_major_axis" : "1.002189261805455",
        "inclination" : "2.07974763007612",
        "ascending_node_longitude" : "227.003991790028",
        "orbital_period" : "366.4570190374504",
        "perihelion_distance" : ".8359228391845402",
        "perihelion_argument" : "194.9107288518438",
        "aphelion_distance" : "1.16845568442637",
        "perihelion_time" : "2458097.775755561877",
        "mean_anomaly" : "264.4382555578862",
        "mean_motion" : ".9823798734858167",
        "equinox" : "J2000"
      }
    } ]
  }
}